MEAN_MOTION;ECCENTRICITY;INCLINATION;RA_OF_ASC_NODE;ARG_OF_PERICENTER;MEAN_ANOMALY;BSTAR;MEAN_MOTION_DOT;MEAN_MOTION_DDOT;TYPE
14.34216753;0.0002472;86.3943;116.0258;96.8618;263.2859;2.0937E-5;7.8E-7;0;Iridium
14.34216813;0.0002478;86.3941;115.6756;96.4681;263.6797;2.014E-5;7.6E-7;0;Iridium
14.342169;0.0002489;86.394;115.2671;96.1909;263.957;2.0849E-5;7.8E-7;0;Iridium
14.34216902;0.000249;86.394;115.2379;96.1522;263.9957;2.0547E-5;7.7E-7;0;Iridium
14.34216995;0.00025;86.3939;114.8878;95.8769;264.2712;2.2416E-5;8.3E-7;0;Iridium
14.3421718;0.000251;86.3937;114.45;95.4452;264.703;2.5707E-5;9.2E-7;0;Iridium
14.3421718;0.000251;86.3937;114.45;95.4452;264.703;2.5707E-5;9.2E-7;0;Iridium
14.3421718;0.000251;86.3937;114.45;95.4452;264.703;2.5707E-5;9.2E-7;0;Iridium
14.34217374;0.0002512;86.3936;113.9539;94.5661;265.5821;2.564E-5;9.2E-7;0;Iridium
14.34217558;0.0002517;86.3936;113.633;94.3717;265.7767;2.812E-5;9.9E-7;0;Iridium
14.34217547;0.0002513;86.3935;113.5746;94.2842;265.8641;2.6139E-5;9.3E-7;0;Iridium
14.34217686;0.0002508;86.3934;113.1951;93.6921;266.4562;2.4932E-5;9.0E-7;0;Iridium
14.34217686;0.0002508;86.3934;113.1951;93.6921;266.4562;2.4932E-5;9.0E-7;0;Iridium
14.34217689;0.0002507;86.3934;113.1659;93.6245;266.5238;2.4216E-5;8.8E-7;0;Iridium
14.34217932;0.0002508;86.3932;112.6113;93.1614;266.9868;2.4258E-5;8.8E-7;0;Iridium
14.34217992;0.0002504;86.3932;112.3486;93.0944;267.0539;2.0793E-5;7.8E-7;0;Iridium
14.34217998;0.000251;86.3931;112.2318;93.0344;267.1139;1.9279E-5;7.4E-7;0;Iridium
14.34218115;0.0002508;86.3931;111.9399;92.7895;267.3588;1.9774E-5;7.5E-7;0;Iridium
14.34218192;0.0002511;86.393;111.7648;92.6123;267.5361;2.1405E-5;8.0E-7;0;Iridium
14.3421826;0.0002513;86.393;111.5313;92.4073;267.741;2.1696E-5;8.1E-7;0;Iridium
14.34218287;0.0002517;86.3929;111.3561;92.1591;267.9893;2.0698E-5;7.8E-7;0;Iridium
14.34218368;0.0002516;86.3929;111.0934;91.8392;268.3092;2.1526E-5;8.0E-7;0;Iridium
14.3421836;0.0002519;86.3928;110.9475;91.6978;268.4507;1.8895E-5;7.3E-7;0;Iridium
14.34218415;0.0002515;86.3928;110.6847;91.4387;268.7097;1.8598E-5;7.2E-7;0;Iridium
14.34218394;0.0002514;86.3928;110.6555;91.3832;268.7652;1.5885E-5;6.4E-7;0;Iridium
14.34218433;0.0002517;86.3927;110.5096;91.2178;268.9306;1.7623E-5;6.9E-7;0;Iridium
14.34218476;0.0002515;86.3927;110.276;91.0553;269.0931;1.8028E-5;7.0E-7;0;Iridium
14.34218484;0.0002515;86.3927;110.2468;91.0079;269.1405;1.8126E-5;7.1E-7;0;Iridium
14.34218572;0.0002516;86.3926;109.8381;90.5577;269.5907;1.9281E-5;7.4E-7;0;Iridium
14.34218637;0.0002518;86.3925;109.6922;90.3444;269.8041;2.2041E-5;8.2E-7;0;Iridium
14.34218723;0.0002515;86.3925;109.4002;90.0563;270.0921;2.2623E-5;8.3E-7;0;Iridium
14.34218784;0.0002516;86.3925;109.2835;89.9071;270.2413;2.5766E-5;9.2E-7;0;Iridium
14.3421889;0.000251;86.3924;109.0207;89.756;270.3923;2.6833E-5;9.5E-7;0;Iridium
14.34218945;0.0002512;86.3924;108.8748;89.5874;270.5609;2.7848E-5;9.8E-7;0;Iridium
14.34219025;0.0002506;86.3924;108.5828;89.2749;270.8734;2.5707E-5;9.2E-7;0;Iridium
14.34219054;0.0002509;86.3923;108.4369;89.1327;271.0156;2.4893E-5;9.0E-7;0;Iridium
14.34219074;0.0002505;86.3923;108.2033;88.8916;271.2567;2.0274E-5;7.7E-7;0;Iridium
14.34219119;0.0002504;86.3923;107.999;88.6292;271.519;1.8887E-5;7.3E-7;0;Iridium
14.34219157;0.0002499;86.3923;107.7362;88.4233;271.7249;1.5753E-5;6.4E-7;0;Iridium
14.34219183;0.0002499;86.3923;107.6194;88.233;271.9152;1.5709E-5;6.4E-7;0;Iridium
14.34219262;0.0002493;86.3923;107.3275;87.9785;272.1696;1.5059E-5;6.2E-7;0;Iridium
14.34219297;0.0002493;86.3923;107.1523;87.7496;272.3985;1.4215E-5;6.0E-7;0;Iridium
14.34219371;0.000249;86.3923;106.9188;87.5163;272.6318;1.5049E-5;6.2E-7;0;Iridium
14.34219418;0.000249;86.3923;106.7436;87.2973;272.8507;1.5058E-5;6.2E-7;0;Iridium
14.34219449;0.0002489;86.3923;106.6852;87.3222;272.8258;1.5418E-5;6.3E-7;0;Iridium
14.34219515;0.0002482;86.3923;106.3349;86.9564;273.1916;1.4612E-5;6.1E-7;0;Iridium
14.34219563;0.0002481;86.3923;106.2473;86.8005;273.3474;1.5275E-5;6.3E-7;0;Iridium
14.34219586;0.0002473;86.3923;106.0722;86.7084;273.4394;1.4621E-5;6.1E-7;0;Iridium
14.3421968;0.0002468;86.3924;105.6926;86.5419;273.6059;1.5671E-5;6.4E-7;0;Iridium
14.34219721;0.0002467;86.3923;105.4883;86.2788;273.869;1.5544E-5;6.3E-7;0;Iridium
14.3421977;0.0002462;86.3924;105.2839;86.0873;274.0604;1.684E-5;6.7E-7;0;Iridium
14.3421982;0.0002447;86.3924;104.8168;85.5016;274.6459;1.5896E-5;6.4E-7;0;Iridium
14.34219923;0.0002436;86.3924;104.4081;85.2157;274.9317;1.8344E-5;7.1E-7;0;Iridium
14.3421997;0.0002432;86.3924;104.2329;84.9805;275.1669;1.9139E-5;7.3E-7;0;Iridium
14.3422002;0.0002424;86.3925;103.9994;84.9318;275.2154;1.9894E-5;7.6E-7;0;Iridium
14.34215187;0.0002402;86.3925;103.5908;83.4691;276.6778;2.8931E-5;1.01E-6;0;Iridium
14.34215261;0.0002395;86.3925;103.4155;82.8807;277.266;2.9446E-5;1.02E-6;0;Iridium
14.34215414;0.0002384;86.3925;103.1527;82.7875;277.3592;3.5568E-5;1.19E-6;0;Iridium
14.34215414;0.0002384;86.3925;103.1527;82.7875;277.3592;3.5568E-5;1.19E-6;0;Iridium
14.34215395;0.0002384;86.3925;102.9775;83.0324;277.1143;2.4087E-5;8.7E-7;0;Iridium
14.34215555;0.0002374;86.3926;102.7439;83.1659;276.9807;3.1416E-5;1.08E-6;0;Iridium
14.34215585;0.0002391;86.3926;102.5689;84.4278;275.719;2.6681E-5;9.5E-7;0;Iridium
14.34215697;0.0002387;86.3927;102.1602;84.0955;276.0513;2.3284E-5;8.5E-7;0;Iridium
14.34215745;0.0002375;86.3928;101.8975;83.7217;276.425;1.9531E-5;7.4E-7;0;Iridium
14.34215871;0.000236;86.3929;101.4888;83.6317;276.5147;1.7947E-5;7.0E-7;0;Iridium
14.34215923;0.0002355;86.3929;101.3137;83.4421;276.7043;1.743E-5;6.9E-7;0;Iridium
14.3421598;0.0002344;86.393;101.0802;83.2276;276.9186;1.6457E-5;6.6E-7;0;Iridium
14.34216024;0.0002342;86.393;100.8758;83.1561;276.9901;1.5263E-5;6.3E-7;0;Iridium
14.34216073;0.0002333;86.393;100.6423;83.027;277.1191;1.5129E-5;6.2E-7;0;Iridium
14.34216074;0.0002333;86.3931;100.6131;82.9335;277.2126;1.5016E-5;6.2E-7;0;Iridium
14.34216116;0.0002326;86.3931;100.4672;82.6859;277.4601;1.486E-5;6.1E-7;0;Iridium
14.34216157;0.0002316;86.3931;100.2337;82.5801;277.5658;1.4865E-5;6.1E-7;0;Iridium
14.34216195;0.000231;86.3931;100.0586;82.4046;277.7412;1.5241E-5;6.2E-7;0;Iridium
14.3421629;0.0002299;86.3932;99.8251;82.2361;277.9096;1.7862E-5;7.0E-7;0;Iridium
14.3421629;0.0002299;86.3932;99.8251;82.2361;277.9096;1.7862E-5;7.0E-7;0;Iridium
14.34216334;0.0002294;86.3932;99.65;82.111;278.0346;1.8657E-5;7.2E-7;0;Iridium
14.34216393;0.0002281;86.3933;99.4165;81.8545;278.291;1.9867E-5;7.5E-7;0;Iridium
14.34216468;0.0002272;86.3933;99.183;81.9648;278.1806;2.1181E-5;7.9E-7;0;Iridium
14.34216551;0.0002263;86.3934;99.0079;81.851;278.2942;2.3776E-5;8.6E-7;0;Iridium
14.34216622;0.0002255;86.3934;98.8036;81.7574;278.3877;2.4918E-5;9.0E-7;0;Iridium
14.34216761;0.0002251;86.3935;98.57;82.3304;277.8147;2.8482E-5;1.0E-6;0;Iridium
14.34216775;0.0002254;86.3935;98.5409;82.4112;277.734;2.8867E-5;1.01E-6;0;Iridium
14.34216837;0.0002249;86.3935;98.395;82.437;277.7081;2.9622E-5;1.03E-6;0;Iridium
14.34216935;0.0002239;86.3936;98.1615;82.2248;277.9202;3.1001E-5;1.07E-6;0;Iridium
14.34217002;0.0002236;86.3936;97.9572;82.2114;277.9335;3.0287E-5;1.05E-6;0;Iridium
14.34217098;0.000223;86.3937;97.7237;82.3154;277.8295;3.0997E-5;1.07E-6;0;Iridium
14.34217098;0.000223;86.3937;97.7237;82.3154;277.8295;3.0997E-5;1.07E-6;0;Iridium
14.34217154;0.0002229;86.3937;97.5487;82.3697;277.7751;3.0086E-5;1.04E-6;0;Iridium
14.34217199;0.0002221;86.3938;97.2861;82.2786;277.8662;2.7345E-5;9.6E-7;0;Iridium
14.3421725;0.0002217;86.3939;97.1402;82.2779;277.8668;2.6744E-5;9.5E-7;0;Iridium
14.34217322;0.0002208;86.3939;96.9068;82.1595;277.9851;2.5418E-5;9.1E-7;0;Iridium
14.34217391;0.0002205;86.394;96.7025;82.0387;278.1059;2.3954E-5;8.7E-7;0;Iridium
14.34217448;0.0002197;86.3941;96.4983;81.7702;278.3742;2.2907E-5;8.4E-7;0;Iridium
14.34217535;0.0002193;86.3941;96.294;81.6822;278.4623;2.3068E-5;8.4E-7;0;Iridium
14.342176;0.0002185;86.3942;96.0606;81.5101;278.6342;2.2038E-5;8.1E-7;0;Iridium
14.34217629;0.0002181;86.3943;95.8855;81.4024;278.7419;1.9849E-5;7.5E-7;0;Iridium
14.34217677;0.0002169;86.3944;95.6521;81.3822;278.7619;1.8214E-5;7.1E-7;0;Iridium
14.34217694;0.0002166;86.3944;95.4479;81.3439;278.8002;1.5327E-5;6.3E-7;0;Iridium
14.34217734;0.0002154;86.3945;95.2436;81.357;278.7869;1.4897E-5;6.1E-7;0;Iridium
14.34217734;0.0002154;86.3945;95.2436;81.357;278.7869;1.4897E-5;6.1E-7;0;Iridium
14.34217793;0.0002152;86.3946;95.0394;81.3374;278.8065;1.4623E-5;6.1E-7;0;Iridium
14.34217846;0.0002142;86.3947;94.8351;81.3341;278.8097;1.5359E-5;6.3E-7;0;Iridium
14.34217865;0.000214;86.3947;94.6309;81.229;278.9149;1.3599E-5;5.8E-7;0;Iridium
14.34217958;0.000213;86.3948;94.3975;81.2114;278.9323;1.6133E-5;6.5E-7;0;Iridium
14.34217958;0.000213;86.3948;94.3975;81.2114;278.9323;1.6133E-5;6.5E-7;0;Iridium
14.34218014;0.0002124;86.3949;94.1933;81.3679;278.7757;1.6793E-5;6.7E-7;0;Iridium
14.34218116;0.0002116;86.3949;93.989;81.3946;278.7489;1.9863E-5;7.5E-7;0;Iridium
14.34218191;0.0002115;86.395;93.7848;81.5387;278.6048;2.1565E-5;8.0E-7;0;Iridium
14.34218353;0.0002107;86.3951;93.3472;81.807;278.3364;2.4841E-5;8.9E-7;0;Iridium
14.34218407;0.0002097;86.3952;93.143;81.6699;278.4734;2.5684E-5;9.2E-7;0;Iridium
14.34218463;0.0002092;86.3953;92.7055;82.0821;278.0612;2.3814E-5;8.6E-7;0;Iridium
14.34218512;0.0002088;86.3954;92.5305;82.1972;277.9461;2.3597E-5;8.6E-7;0;Iridium
14.34218585;0.0002086;86.3954;92.2971;82.6093;277.534;2.4124E-5;8.7E-7;0;Iridium
14.34218667;0.0002086;86.3955;92.1221;82.6253;277.518;2.5399E-5;9.1E-7;0;Iridium
14.34218783;0.0002078;86.3956;91.8888;82.5245;277.6186;2.7308E-5;9.6E-7;0;Iridium
14.34218832;0.0002074;86.3957;91.6847;82.5848;277.5583;2.5138E-5;9.0E-7;0;Iridium
14.3421891;0.0002067;86.3957;91.4805;82.6572;277.4859;2.5429E-5;9.1E-7;0;Iridium
14.34219019;0.0002064;86.3958;91.2763;82.7041;277.4389;2.6258E-5;9.3E-7;0;Iridium
14.34219017;0.0002064;86.3958;91.2472;82.6024;277.5406;2.5583E-5;9.1E-7;0;Iridium
14.34219101;0.0002054;86.3959;91.0721;82.7425;277.4004;2.6341E-5;9.4E-7;0;Iridium
